OBJECT_NAME,OBJECT_ID,EPOCH,MEAN_MOTION,ECCENTRICITY,INCLINATION,RA_OF_ASC_NODE,ARG_OF_PERICENTER,MEAN_ANOMALY,EPHEMERIS_TYPE,CLASSIFICATION_TYPE,NORAD_CAT_ID,ELEMENT_SET_NO,REV_AT_EPOCH,BSTAR,MEAN_MOTION_DOT,MEAN_MOTION_DDOT
BEIDOU-2 IGSO-5 (C10),2011-073A,2026-07-02T17:30:18.330912,1.00270596,.01145273,47.6496,271.3544,222.0502,141.5350,0,U,37948,999,5329,0,-.128E-5,0
LUCH 5A (SDCM/PRN 140),2011-074B,2026-07-16T13:42:14.603040,1.00273318,.0002682,8.8266,73.3738,61.1694,172.4129,0,U,37951,999,5334,0,-.64E-6,0
BEIDOU-2 G5 (C05),2012-008A,2026-07-16T20:26:26.736576,1.00270709,.0007294,3.6456,69.5069,268.6163,321.8185,0,U,38091,999,5266,0,.46E-6,0
BEIDOU-2 M3 (C11),2012-018A,2026-07-16T04:25:36.942240,1.86229676,.0020973,55.7311,303.8980,272.2798,87.5098,0,U,38250,999,9648,0,-.76E-6,0
BEIDOU-2 M4 (C12),2012-018B,2026-07-16T02:48:11.782656,1.86229279,.0012128,55.6311,303.1118,272.2948,87.5971,0,U,38251,999,9648,0,-.75E-6,0
SES-5 (EGNOS/PRN 136),2012-036A,2026-07-16T19:53:38.707008,1.00271675,.0002008,0.0434,324.9985,148.0675,124.9749,0,U,38652,999,4475,0,.23E-6,0
BEIDOU-2 M6 (C14),2012-050B,2026-07-15T19:50:00.704256,1.86230913,.00128901,56.5693,61.9476,1.6971,358.3817,0,U,38775,999,9384,0,-.44E-6,0
GSAT-10 (GAGAN/PRN 128),2012-051B,2026-07-16T18:15:38.791296,1.00272757,.0007442,0.0870,264.4753,190.2508,196.7658,0,U,38779,999,5039,0,-.175E-5,0
GPS BIIF-3  (PRN 24),2012-053A,2026-07-15T05:39:39.312288,2.00567906,.0182026,53.5896,142.4502,66.2229,295.6325,0,U,38833,999,10000,0,.4E-7,0
GSAT0103 (GALILEO-FM3),2012-055A,2026-07-16T05:14:38.805216,1.70473424,.0003594,55.8227,100.7486,314.9576,45.0469,0,U,38857,999,8550,0,-.26E-6,0
BEIDOU-2 G6 (C02),2012-059A,2026-07-16T18:51:05.958432,1.00273423,.0008744,4.4942,73.1994,327.1899,260.9917,0,U,38953,999,5020,0,-.188E-5,0
LUCH 5B (SDCM/PRN 125),2012-061A,2026-07-16T20:05:19.453344,1.00270341,.0003896,10.5464,49.5833,147.3803,22.7470,0,U,38977,999,4990,0,-.151E-5,0
COSMOS 2485 (747),2013-019A,2026-07-16T11:21:39.427200,2.13103151,.0022636,65.4360,72.6223,231.0760,128.7981,0,U,39155,999,10290,0,-.16E-6,0
GPS BIIF-4  (PRN 27),2013-023A,2026-07-16T14:23:04.672032,2.00563327,.0141386,54.4817,267.7742,51.1132,310.2168,0,U,39166,999,9647,0,-.2E-6,0
IRNSS-1A,2013-034A,2026-07-10T17:17:25.712736,1.00281941,.0017567,35.7704,63.5328,183.4462,356.2994,0,U,39199,999,4760,0,.47E-6,0
GPS BIIF-5  (PRN 30),2014-008A,2026-07-15T14:29:46.849344,2.00561576,.008409,53.6578,148.1607,231.5482,127.6544,0,U,39533,999,9025,0,.11E-6,0
ASTRA 5B (EGNOS/PRN 123),2014-011B,2026-07-16T19:45:14.764320,1.00268933,.0001929,0.0733,303.6605,180.1671,130.5948,0,U,39617,999,4496,0,.126E-5,0
COSMOS 2492 (754),2014-012A,2026-07-14T13:19:26.928192,2.13103205,.0010322,65.2800,313.0063,317.7862,42.1441,0,U,39620,999,9582,0,-.62E-6,0
IRNSS-1B,2014-017A,2026-07-15T17:03:00.572256,1.00275936,.00222843,28.8748,239.9111,191.7753,172.7664,0,U,39635,999,4508,0,.127E-5,0
LUCH 5V (SDCM/PRN 141),2014-023A,2026-07-16T20:27:21.724128,1.00273031,.000208,5.2041,69.4306,84.9481,181.8678,0,U,39727,999,4465,0,-.281E-5,0
GPS BIIF-6  (PRN 06),2014-026A,2026-07-16T09:05:19.434624,2.00558803,.0038146,56.4825,330.3814,325.7541,33.9985,0,U,39741,999,8912,0,-.96E-6,0
COSMOS 2500 (755),2014-032A,2026-07-16T03:10:35.130720,2.13105751,.0008313,65.2141,312.6974,190.7170,169.2811,0,U,40001,999,9407,0,-.63E-6,0
GPS BIIF-7  (PRN 09),2014-045A,2026-07-16T11:17:22.837344,2.00560343,.0034437,55.3721,87.2982,118.3856,242.0173,0,U,40105,999,8666,0,-.25E-6,0
GSAT0201 (GALILEO 5),2014-050A,2026-07-15T23:35:44.116800,1.85519415,.167871,48.8430,272.2541,180.5497,179.3011,0,U,40128,999,7885,0,-.37E-6,0
GSAT0202 (GALILEO 6),2014-050B,2026-07-16T18:39:41.832864,1.85520382,.1679996,48.8597,271.3072,181.2736,178.2966,0,U,40129,999,8103,0,-.44E-6,0
IRNSS-1C,2014-061A,2026-07-15T19:57:21.752928,1.00272233,.00220694,6.5880,88.3869,5.5373,222.1370,0,U,40269,999,4297,0,-.176E-5,0
GPS BIIF-8  (PRN 03),2014-068A,2026-07-15T20:09:44.716896,2.00553234,.0067414,57.0073,29.8518,72.3241,288.4563,0,U,40294,999,8578,0,-.72E-6,0
COSMOS 2501 (702K),2014-075A,2026-07-14T01:09:44.871264,2.13101105,.0022586,63.6185,189.4424,212.6579,147.2095,0,U,40315,999,9042,0,.65E-6,0
GPS BIIF-9  (PRN 26),2015-013A,2026-07-16T11:31:30.494784,2.00549572,.0110409,53.1660,202.9660,40.3942,320.4327,0,U,40534,999,8241,0,.4E-6,0
GSAT0203 (GALILEO 7),2015-017A,2026-07-14T18:46:19.723008,1.70476177,.00026409,56.7770,340.8444,255.9596,103.9964,0,U,40544,999,6967,0,-.99E-6,0
GSAT0204 (GALILEO 8),2015-017B,2026-07-16T05:04:08.633856,1.70475700,.0002843,56.7841,340.8241,234.4968,125.4630,0,U,40545,999,3274,0,-.102E-5,0
